STARLINK-30384          
1 57774U 23134D   25068.89434798 -.00000273  00000+0 -51582-5 0  9995
2 57774  43.0068  19.9537 0001739 268.4184  91.6459 15.02540935 84594
STARLINK-30305          
1 57775U 23134E   25068.89768310 -.00000195  00000+0  64779-6 0  9991
2 57775  43.0004  19.9775 0000607 262.9796  97.0977 15.02535962 84599
STARLINK-30360          
1 57776U 23134F   25068.89101725 -.00002349  00000+0 -15882-3 0  9995
2 57776  43.0049  19.9277 0000753 277.9466  82.1291 15.02551032 84598
STARLINK-30355          
1 57777U 23134G   25068.88436462 -.00002495  00000+0 -16968-3 0  9992
2 57777  43.0014  19.8529 0000908 306.6718  53.4041 15.02542547 84586
STARLINK-30385          
1 57778U 23134H   25068.23983835  .00003964  00000+0  30838-3 0  9995
2 57778  43.0025  10.7903 0001276 266.3017  93.7680 15.02536367 84486
STARLINK-30359          
1 57779U 23134J   25068.10022332  .00002073  00000+0  16852-3 0  9998
2 57779  43.0035  11.4969 0001265 268.5381  91.5316 15.02535817 84621
STARLINK-30380          
1 57780U 23134K   25068.25942553  .00005738  00000+0  43953-3 0  9995
2 57780  43.0035  22.9239 0001177 261.5925  98.4784 15.02534235 84504
STARLINK-30369          
1 57781U 23134L   25068.88102688  .00000522  00000+0  53676-4 0  9992
2 57781  43.0045  19.8407 0001094 268.1740  91.8977 15.02538382 84591
STARLINK-30376          
1 57782U 23134M   25068.26274920  .00001309  00000+0  11193-3 0  9995
2 57782  43.0051  22.9579 0001161 266.9537  93.1173 15.02537668 84509
STARLINK-30389          
1 57783U 23134N   25068.20958951  .00000635  00000+0  62055-4 0  9998
2 57783  43.0048  23.4146 0001142 269.1729  90.8983 15.02540700 84255
STARLINK-30388          
1 57784U 23134P   25068.27273742  .00004027  00000+0  31291-3 0  9990
2 57784  43.0044  23.0295 0001149 258.5570 101.5144 15.02546473 84506
STARLINK-30381          
1 57785U 23134Q   25068.24942150  .00001648  00000+0  13704-3 0  9999
2 57785  43.0026  22.7632 0001114 256.0199 104.0519 15.02538157 84504
STARLINK-30382          
1 57786U 23134R   25068.93421290 -.00015538  00000+0 -11392-2 0  9998
2 57786  43.0024  19.3907 0003606 127.4776 232.6394 15.02479347 84605
STARLINK-30378          
1 57787U 23134S   25068.24610328  .00000186  00000+0  28810-4 0  9991
2 57787  43.0013  22.8268 0000916 272.2694  87.8043 15.02536939 84503
STARLINK-30387          
1 57788U 23134T   25068.30287593  .00000999  00000+0  89007-4 0  9990
2 57788  43.0031   9.5893 0001209 259.4274 100.6432 15.02535338 84662
STARLINK-30372          
1 57789U 23134U   25068.75377510  .00008744  00000+0  25733-3 0  9990
2 57789  43.0021 346.4791 0003035 255.3964 104.6555 15.35318346 84970
STARLINK-30373          
1 57790U 23134V   25068.81971570 -.00002052  00000+0 -68590-4 0  9992
2 57790  43.0009   2.3819 0001268 243.2289 116.8432 15.25929305 84790
STARLINK-30367          
1 57791U 23134W   25068.85439014  .00000665  00000+0  64308-4 0  9998
2 57791  43.0033  19.6492 0000944 270.2092  89.8642 15.02539448 84598
STARLINK-30304          
1 57808U 23138A   25068.75552411  .00024118  00000+0  58440-3 0  9995
2 57808  43.0037 324.5920 0002774 263.5413  96.5128 15.40615605 84866
STARLINK-30374          
1 57809U 23138B   25068.33843897  .00001388  00000+0  11780-3 0  9991
2 57809  43.0041  61.6380 0001197 274.7402  85.3303 15.02541070 83751
STARLINK-30394          
1 57810U 23138C   25068.40159093  .00000699  00000+0  66802-4 0  9999
2 57810  43.0037  61.2522 0001011 259.6597 100.4131 15.02537767 83660
STARLINK-30379          
1 57811U 23138D   25068.26531001  .00000098  00000+0  22351-4 0  9991
2 57811  43.0025  61.9458 0001266 268.1996  91.8702 15.02522885 83744
STARLINK-30395          
1 57812U 23138E   25068.26197306  .00000262  00000+0  34485-4 0  9992
2 57812  43.0028  61.9240 0001085 269.9526  90.1192 15.02539994 83748
STARLINK-30403          
1 57813U 23138F   25068.25864832  .00000230  00000+0  32112-4 0  9997
2 57813  43.0031  61.8990 0000677 259.6337 100.4429 15.02533013 83649
STARLINK-30413          
1 57814U 23138G   25068.23867226  .00000663  00000+0  64119-4 0  9998
2 57814  43.0037  61.7544 0001220 267.5164  92.5539 15.02533516 83743
STARLINK-30398          
1 57815U 23138H   25068.38826984  .00000637  00000+0  62179-4 0  9996
2 57815  43.0037  61.1519 0001050 266.4573  93.6149 15.02539744 83651
STARLINK-30386          
1 57816U 23138J   25068.25198209  .00000266  00000+0  34780-4 0  9990
2 57816  43.0027  61.8506 0001223 269.0340  91.0362 15.02540817 83569
STARLINK-30391          
1 57817U 23138K   25068.44808683  .00003474  00000+0  27204-3 0  9992
2 57817  43.0026  60.7405 0001217 273.6344  86.4359 15.02546339 83775
STARLINK-30401          
1 57818U 23138L   25068.37828278  .00004499  00000+0  34792-3 0  9995
2 57818  43.0034  61.0780 0001032 269.0813  90.9911 15.02536902 83667
STARLINK-30390          
1 57819U 23138M   25068.37495248  .00000937  00000+0  84435-4 0  9996
2 57819  43.0035  61.0523 0001348 270.8330  89.2358 15.02536844 83692
STARLINK-30409          
1 57820U 23138N   25068.02926043 -.00008990  00000+0 -65106-3 0  9994
2 57820  42.9994  62.7349 0000691 306.9340  53.1439 15.02550688 83650
STARLINK-30415          
1 57821U 23138P   25068.36607392  .00002911  00000+0  23049-3 0  9990
2 57821  43.0035  60.9864 0001130 268.0493  92.0220 15.02538967 83754
STARLINK-30407          
1 57823U 23138R   25068.16021602  .00002022  00000+0  82990-4 0  9998
2 57823  43.0054  33.0922 0001161 265.7891  94.2828 15.27583890 84068
STARLINK-30408          
1 57824U 23138S   25068.36497214  .00005388  00000+0  41381-3 0  9993
2 57824  43.0022  60.9743 0001217 285.1407  74.9301 15.02515795 83753
STARLINK-30377          
1 57825U 23138T   25068.28183591  .00000127  00000+0  24493-4 0  9997
2 57825  43.0057  61.2166 0001162 266.2815  93.7894 15.02536490 83646
STARLINK-30422          
1 57826U 23138U   25068.28516191  .00001839  00000+0  15114-3 0  9994
2 57826  43.0030  61.2368 0001017 279.2843  80.7884 15.02542620 83744
STARLINK-30402          
1 57827U 23138V   25068.28960611  .00000663  00000+0  64174-4 0  9990
2 57827  43.0052  61.2723 0001168 265.7765  94.2944 15.02537110 83749
STARLINK-30411          
1 57828U 23138W   25068.35830003 -.00000751  00000+0 -40568-4 0  9991
2 57828  43.0040  60.9055 0001418 271.1835  88.8845 15.02528932 83693
STARLINK-30418          
1 57829U 23138X   25068.34498486  .00000287  00000+0  36333-4 0  9993
2 57829  43.0033  60.8271 0001273 271.5538  88.5159 15.02534803 83596
STARLINK-30285          
1 57840U 23141A   25068.61922423 -.00000098  00000+0  88162-5 0  9992
2 57840  53.1599 179.8642 0001134 100.5090 259.6039 15.30193626 84438
STARLINK-30410          
1 57841U 23141B   25068.56654361  .00000067  00000+0  14386-4 0  9991
2 57841  53.1600 180.0565 0001246 108.9169 251.1967 15.30191176 84427
STARLINK-30435          
1 57842U 23141C   25068.70033996  .00004315  00000+0  15782-3 0  9993
2 57842  53.1605 179.4955 0001470  89.1915 270.9254 15.30183345 84445
STARLINK-30423          
1 57843U 23141D   25068.70455285  .00007364  00000+0  26042-3 0  9991
2 57843  53.1585 179.4774 0001322  93.6243 266.4909 15.30211114 84445
STARLINK-30292          
1 57844U 23141E   25068.59496967 -.00002559  00000+0 -74365-4 0  9996
2 57844  53.1605 179.7236 0001148  67.9205 292.1917 15.30173088 84434
STARLINK-30416          
1 57847U 23141H   25068.69086866 -.00000299  00000+0  20427-5 0  9992
2 57847  53.1605 179.5686 0001212 101.7148 258.3989 15.30189837 84442
STARLINK-30426          
1 57848U 23141J   25068.57709049  .00002017  00000+0  80217-4 0  9996
2 57848  53.1598 180.0773 0001113  71.0168 289.0953 15.30187603 84428
STARLINK-30430          
1 57849U 23141K   25068.68770208  .00001769  00000+0  71846-4 0  9995
2 57849  53.1595 179.5892 0001189  96.3954 263.7182 15.30198775 84444
STARLINK-30425          
1 57850U 23141L   25068.71088052  .00002312  00000+0  90143-4 0  9996
2 57850  53.1598 179.4905 0001210  86.3925 273.7214 15.30201744 84443
STARLINK-30405          
1 57851U 23141M   25068.62870877  .00001411  00000+0  59739-4 0  9996
2 57851  53.1600 179.8770 0001037 103.3297 256.7820 15.30198745 84430
STARLINK-30431          
1 57852U 23141N   25068.71713482 -.00003079  00000+0 -91786-4 0  9997
2 57852  53.1604 179.0551 0001701 107.0748 253.0439 15.30224061 84442
STARLINK-30404          
1 57853U 23141P   25068.71292378 -.00000675  00000+0 -10674-4 0  9990
2 57853  53.1596 179.0299 0001282  72.4049 287.7092 15.30187310 84450
STARLINK-30412          
1 57854U 23141Q   25068.59285644 -.00002278  00000+0 -64844-4 0  9994
2 57854  53.1618 179.7075 0001524  86.5141 273.6034 15.30181095 84435
STARLINK-30392          
1 57855U 23141R   25068.72030838 -.00004689  00000+0 -14627-3 0  9994
2 57855  53.1600 179.0737 0001422 104.0389 256.0770 15.30202074 84457
STARLINK-30291          
1 57856U 23141S   25068.61290633 -.00000586  00000+0 -76585-5 0  9999
2 57856  53.1607 179.8306 0001254  79.3651 280.7491 15.30184647 84431
STARLINK-30424          
1 57857U 23141T   25068.54061685  .00146592  00000+0  30816-2 0  9995
2 57857  53.1576 161.9359 0003130 321.4714  38.6069 15.44320406 84670
STARLINK-30290          
1 57858U 23141U   25068.59917687 -.00000034  00000+0  10974-4 0  9999
2 57858  53.1603 179.7451 0001122 100.4816 259.6311 15.30192976 84432
STARLINK-30414          
1 57859U 23141V   25068.72671039 -.00008621  00000+0 -27993-3 0  9992
2 57859  53.1601 179.1166 0001330  82.8798 277.2354 15.30126059 84455
STARLINK-30272          
1 57860U 23141W   25068.68136459  .00003364  00000+0  12558-3 0  9999
2 57860  53.1616 179.5436 0001292  81.1574 278.9573 15.30215343 84443
STARLINK-30432          
1 57864U 23144A   25068.18112011  .00001341  00000+0  11436-3 0  9996
2 57864  43.0020 113.9792 0001221 273.6113  86.4590 15.02528706 82583
